ORBCOMM FM37 [-]        
1 33064U 08031E   24086.74280220  .00003799  00000+0  57352-3 0  9995
2 33064  48.4397 304.7982 0006218 258.9048 219.9687 14.76121216847865
ORBCOMM FM40 [-]        
1 33065U 08031F   24086.71053479  .00004827  00000+0  69961-3 0  9999
2 33065  48.4415 294.7471 0007539 266.4773 211.7044 14.77392623847897
ORBCOMM FM109 [+]       
1 40086U 14040A   24086.91836538  .00001793  00000+0  43722-3 0  9990
2 40086  47.0035 325.9279 0001468  53.8448 306.2573 14.56423797515822
ORBCOMM FM107 [+]       
1 40087U 14040B   24086.74698574  .00002364  00000+0  56448-3 0  9992
2 40087  47.0053 327.6956 0001238   3.6251 356.4642 14.56428185515879
ORBCOMM FM106 [-]       
1 40088U 14040C   24086.57923367  .00003475  00000+0  64799-3 0  9997
2 40088  47.0593 184.9304 0017519 153.2590 206.9206 14.66789517517919
ORBCOMM FM111 [-]       
1 40089U 14040D   24087.05429559  .00005092  00000+0  66384-3 0  9995
2 40089  47.0028  88.8936 0033375 220.3279 139.5140 14.81391928523821
ORBCOMM FM104 [-]       
1 40090U 14040E   24087.01625185  .00001753  00000+0  44129-3 0  9999
2 40090  47.0062 354.8498 0017516 321.9066  38.0579 14.54980806515561
