<?xml version="1.0" encoding="UTF-8"?>
<ndm xmlns:xsi="http://www.w3.org/2001/XMLSchema-instance" xsi:noNamespaceSchemaLocation="https://sanaregistry.org/r/ndmxml_unqualified/ndmxml-2.0.0-master-2.0.xsd">
<omm id="CCSDS_OMM_VERS" version="2.0">
<header><CREATION_DATE/><ORIGINATOR/></header><body><segment><metadata><OBJECT_NAME>ORBCOMM FM37 [-]</OBJECT_NAME><OBJECT_ID>2008-031E</OBJECT_ID><CENTER_NAME>EARTH</CENTER_NAME><REF_FRAME>TEME</REF_FRAME><TIME_SYSTEM>UTC</TIME_SYSTEM><MEAN_ELEMENT_THEORY>SGP4</MEAN_ELEMENT_THEORY></metadata><data><meanElements><EPOCH>2024-03-26T17:49:38.110080</EPOCH><MEAN_MOTION>14.76121216</MEAN_MOTION><ECCENTRICITY>.0006218</ECCENTRICITY><INCLINATION>48.4397</INCLINATION><RA_OF_ASC_NODE>304.7982</RA_OF_ASC_NODE><ARG_OF_PERICENTER>258.9048</ARG_OF_PERICENTER><MEAN_ANOMALY>219.9687</MEAN_ANOMALY></meanElements><tleParameters><EPHEMERIS_TYPE>0</EPHEMERIS_TYPE><CLASSIFICATION_TYPE>U</CLASSIFICATION_TYPE><NORAD_CAT_ID>33064</NORAD_CAT_ID><ELEMENT_SET_NO>999</ELEMENT_SET_NO><REV_AT_EPOCH>84786</REV_AT_EPOCH><BSTAR>.57352E-3</BSTAR><MEAN_MOTION_DOT>.3799E-4</MEAN_MOTION_DOT><MEAN_MOTION_DDOT>0</MEAN_MOTION_DDOT></tleParameters></data></segment></body></omm>
<omm id="CCSDS_OMM_VERS" version="2.0">
<header><CREATION_DATE/><ORIGINATOR/></header><body><segment><metadata><OBJECT_NAME>ORBCOMM FM40 [-]</OBJECT_NAME><OBJECT_ID>2008-031F</OBJECT_ID><CENTER_NAME>EARTH</CENTER_NAME><REF_FRAME>TEME</REF_FRAME><TIME_SYSTEM>UTC</TIME_SYSTEM><MEAN_ELEMENT_THEORY>SGP4</MEAN_ELEMENT_THEORY></metadata><data><meanElements><EPOCH>2024-03-26T17:03:10.205856</EPOCH><MEAN_MOTION>14.77392623</MEAN_MOTION><ECCENTRICITY>.0007539</ECCENTRICITY><INCLINATION>48.4415</INCLINATION><RA_OF_ASC_NODE>294.7471</RA_OF_ASC_NODE><ARG_OF_PERICENTER>266.4773</ARG_OF_PERICENTER><MEAN_ANOMALY>211.7044</MEAN_ANOMALY></meanElements><tleParameters><EPHEMERIS_TYPE>0</EPHEMERIS_TYPE><CLASSIFICATION_TYPE>U</CLASSIFICATION_TYPE><NORAD_CAT_ID>33065</NORAD_CAT_ID><ELEMENT_SET_NO>999</ELEMENT_SET_NO><REV_AT_EPOCH>84789</REV_AT_EPOCH><BSTAR>.69961E-3</BSTAR><MEAN_MOTION_DOT>.4827E-4</MEAN_MOTION_DOT><MEAN_MOTION_DDOT>0</MEAN_MOTION_DDOT></tleParameters></data></segment></body></omm>
<omm id="CCSDS_OMM_VERS" version="2.0">
<header><CREATION_DATE/><ORIGINATOR/></header><body><segment><metadata><OBJECT_NAME>ORBCOMM FM109 [+]</OBJECT_NAME><OBJECT_ID>2014-040A</OBJECT_ID><CENTER_NAME>EARTH</CENTER_NAME><REF_FRAME>TEME</REF_FRAME><TIME_SYSTEM>UTC</TIME_SYSTEM><MEAN_ELEMENT_THEORY>SGP4</MEAN_ELEMENT_THEORY></metadata><data><meanElements><EPOCH>2024-03-26T22:02:26.768832</EPOCH><MEAN_MOTION>14.56423797</MEAN_MOTION><ECCENTRICITY>.0001468</ECCENTRICITY><INCLINATION>47.0035</INCLINATION><RA_OF_ASC_NODE>325.9279</RA_OF_ASC_NODE><ARG_OF_PERICENTER>53.8448</ARG_OF_PERICENTER><MEAN_ANOMALY>306.2573</MEAN_ANOMALY></meanElements><tleParameters><EPHEMERIS_TYPE>0</EPHEMERIS_TYPE><CLASSIFICATION_TYPE>U</CLASSIFICATION_TYPE><NORAD_CAT_ID>40086</NORAD_CAT_ID><ELEMENT_SET_NO>999</ELEMENT_SET_NO><REV_AT_EPOCH>51582</REV_AT_EPOCH><BSTAR>.43722E-3</BSTAR><MEAN_MOTION_DOT>.1793E-4</MEAN_MOTION_DOT><MEAN_MOTION_DDOT>0</MEAN_MOTION_DDOT></tleParameters></data></segment></body></omm>
<omm id="CCSDS_OMM_VERS" version="2.0">
<header><CREATION_DATE/><ORIGINATOR/></header><body><segment><metadata><OBJECT_NAME>ORBCOMM FM107 [+]</OBJECT_NAME><OBJECT_ID>2014-040B</OBJECT_ID><CENTER_NAME>EARTH</CENTER_NAME><REF_FRAME>TEME</REF_FRAME><TIME_SYSTEM>UTC</TIME_SYSTEM><MEAN_ELEMENT_THEORY>SGP4</MEAN_ELEMENT_THEORY></metadata><data><meanElements><EPOCH>2024-03-26T17:55:39.567936</EPOCH><MEAN_MOTION>14.56428185</MEAN_MOTION><ECCENTRICITY>.0001238</ECCENTRICITY><INCLINATION>47.0053</INCLINATION><RA_OF_ASC_NODE>327.6956</RA_OF_ASC_NODE><ARG_OF_PERICENTER>3.6251</ARG_OF_PERICENTER><MEAN_ANOMALY>356.4642</MEAN_ANOMALY></meanElements><tleParameters><EPHEMERIS_TYPE>0</EPHEMERIS_TYPE><CLASSIFICATION_TYPE>U</CLASSIFICATION_TYPE><NORAD_CAT_ID>40087</NORAD_CAT_ID><ELEMENT_SET_NO>999</ELEMENT_SET_NO><REV_AT_EPOCH>51587</REV_AT_EPOCH><BSTAR>.56448E-3</BSTAR><MEAN_MOTION_DOT>.2364E-4</MEAN_MOTION_DOT><MEAN_MOTION_DDOT>0</MEAN_MOTION_DDOT></tleParameters></data></segment></body></omm>
<omm id="CCSDS_OMM_VERS" version="2.0">
<header><CREATION_DATE/><ORIGINATOR/></header><body><segment><metadata><OBJECT_NAME>ORBCOMM FM106 [-]</OBJECT_NAME><OBJECT_ID>2014-040C</OBJECT_ID><CENTER_NAME>EARTH</CENTER_NAME><REF_FRAME>TEME</REF_FRAME><TIME_SYSTEM>UTC</TIME_SYSTEM><MEAN_ELEMENT_THEORY>SGP4</MEAN_ELEMENT_THEORY></metadata><data><meanElements><EPOCH>2024-03-26T13:54:05.789088</EPOCH><MEAN_MOTION>14.66789517</MEAN_MOTION><ECCENTRICITY>.0017519</ECCENTRICITY><INCLINATION>47.0593</INCLINATION><RA_OF_ASC_NODE>184.9304</RA_OF_ASC_NODE><ARG_OF_PERICENTER>153.2590</ARG_OF_PERICENTER><MEAN_ANOMALY>206.9206</MEAN_ANOMALY></meanElements><tleParameters><EPHEMERIS_TYPE>0</EPHEMERIS_TYPE><CLASSIFICATION_TYPE>U</CLASSIFICATION_TYPE><NORAD_CAT_ID>40088</NORAD_CAT_ID><ELEMENT_SET_NO>999</ELEMENT_SET_NO><REV_AT_EPOCH>51791</REV_AT_EPOCH><BSTAR>.64799E-3</BSTAR><MEAN_MOTION_DOT>.3475E-4</MEAN_MOTION_DOT><MEAN_MOTION_DDOT>0</MEAN_MOTION_DDOT></tleParameters></data></segment></body></omm>
<omm id="CCSDS_OMM_VERS" version="2.0">
<header><CREATION_DATE/><ORIGINATOR/></header><body><segment><metadata><OBJECT_NAME>ORBCOMM FM111 [-]</OBJECT_NAME><OBJECT_ID>2014-040D</OBJECT_ID><CENTER_NAME>EARTH</CENTER_NAME><REF_FRAME>TEME</REF_FRAME><TIME_SYSTEM>UTC</TIME_SYSTEM><MEAN_ELEMENT_THEORY>SGP4</MEAN_ELEMENT_THEORY></metadata><data><meanElements><EPOCH>2024-03-27T01:18:11.138976</EPOCH><MEAN_MOTION>14.81391928</MEAN_MOTION><ECCENTRICITY>.0033375</ECCENTRICITY><INCLINATION>47.0028</INCLINATION><RA_OF_ASC_NODE>88.8936</RA_OF_ASC_NODE><ARG_OF_PERICENTER>220.3279</ARG_OF_PERICENTER><MEAN_ANOMALY>139.5140</MEAN_ANOMALY></meanElements><tleParameters><EPHEMERIS_TYPE>0</EPHEMERIS_TYPE><CLASSIFICATION_TYPE>U</CLASSIFICATION_TYPE><NORAD_CAT_ID>40089</NORAD_CAT_ID><ELEMENT_SET_NO>999</ELEMENT_SET_NO><REV_AT_EPOCH>52382</REV_AT_EPOCH><BSTAR>.66384E-3</BSTAR><MEAN_MOTION_DOT>.5092E-4</MEAN_MOTION_DOT><MEAN_MOTION_DDOT>0</MEAN_MOTION_DDOT></tleParameters></data></segment></body></omm>
<omm id="CCSDS_OMM_VERS" version="2.0">
<header><CREATION_DATE/><ORIGINATOR/></header><body><segment><metadata><OBJECT_NAME>ORBCOMM FM104 [-]</OBJECT_NAME><OBJECT_ID>2014-040E</OBJECT_ID><CENTER_NAME>EARTH</CENTER_NAME><REF_FRAME>TEME</REF_FRAME><TIME_SYSTEM>UTC</TIME_SYSTEM><MEAN_ELEMENT_THEORY>SGP4</MEAN_ELEMENT_THEORY></metadata><data><meanElements><EPOCH>2024-03-27T00:23:24.159840</EPOCH><MEAN_MOTION>14.54980806</MEAN_MOTION><ECCENTRICITY>.0017516</ECCENTRICITY><INCLINATION>47.0062</INCLINATION><RA_OF_ASC_NODE>354.8498</RA_OF_ASC_NODE><ARG_OF_PERICENTER>321.9066</ARG_OF_PERICENTER><MEAN_ANOMALY>38.0579</MEAN_ANOMALY></meanElements><tleParameters><EPHEMERIS_TYPE>0</EPHEMERIS_TYPE><CLASSIFICATION_TYPE>U</CLASSIFICATION_TYPE><NORAD_CAT_ID>40090</NORAD_CAT_ID><ELEMENT_SET_NO>999</ELEMENT_SET_NO><REV_AT_EPOCH>51556</REV_AT_EPOCH><BSTAR>.44129E-3</BSTAR><MEAN_MOTION_DOT>.1753E-4</MEAN_MOTION_DOT><MEAN_MOTION_DDOT>0</MEAN_MOTION_DDOT></tleParameters></data></segment></body></omm>

</ndm>
